id;nombre;domicilio;telefono;email;web;tipo;calle;altura;direccion;Long;Lat
1;248 Finisterra;Báez 248;(54 11) 4773 0901/ 4776 8777;info@248finisterra.com;;;Báez;248;Báez 248;;
2;Avenida Petit Hotel;De Mayo Av. 1347;(54 11) 4381-2428 / 7831;avenidapetit@gmail.com;;;De Mayo Av.;1347;De Mayo Av. 1347;;
3;Bohemia Buenos Aires Hotel;Perú 845;(54 11) 4115-2561/2566;info@bohemiabuenosaires.com.ar;;;Perú;845;Perú 845;;
4;Castelli 75;Castelli 75;(54 11) 4952-9003 / 8584;;;;Castelli;75;Castelli 75;;
5;Cevallos Palace Hotel;Cevallos, Virrey 261;(54 11) 4372-7636;hotelcevallos@hotmail.com;;;Cevallos, Virrey;261;Cevallos, Virrey 261;;
6;Condor Hotel;La Rioja 258;(54 11) 4932-7626;hotelcondor@hotmail.com;;;La Rioja;258;La Rioja 258;;
7;De La Rue;Freire 1765;(54 11) 4551-4884 / 4552-4048;info@hoteldelarue.com.ar;;;Freire;1765;Freire 1765;;
8;Del Congreso;Yrigoyen, Hipolito 2064;(54 11) 4952 7728 / 4952 0385;;;;Yrigoyen, Hipolito;2064;Yrigoyen, Hipolito 2064;;
9;Du Helder Hotel;Rivadavia Av. 857;(54 11) 4345-3644/3650;hotelduhelder@hotmail.com;;;Rivadavia Av.;857;Rivadavia Av. 857;;
10;El Cabildo;Lavalle 748;(54 11) 4322-6695 / 6745;reservas@hotelelcabildo.com;;;Lavalle;748;Lavalle 748;;
11;Fiorentino Hotel;Urquiza 187;(54 11) 4932-9641 / 4931-1368;mariasambade@hotmail.com.ar;;;Urquiza;187;Urquiza 187;;
12;Frossard Hotel;Tucuman 686;(54 11) 4322-1811;reservas@hotelfrossard.com.ar;;;Tucuman;686;Tucuman 686;;
13;Gran Sarmiento;Sarmiento 1892;(54 11) 4374-8069;;;;Sarmiento;1892;Sarmiento 1892;;
14;Hispano Argentino;Catamarca 167;(54 11) 4931-5543 / 4932-3980;contacto@hhispanoargentino.com.ar;;;Catamarca;167;Catamarca 167;;
15;Hotel Manzanares Plaza;Manzanares 2339;(54 11) 4702-6839;info.manzanares@gmail.com;;;Manzanares;2339;Manzanares 2339;;
16;Hotel Quito;Alsina 2737;(54 11) 4957-5056;info@hotelquito.com.ar;http://hotelquito.com.ar/;;Alsina;2737;Alsina 2737;;
17;Hotel Siena;Peron, Juan Domnigo, Tte. General 1554;(54 11) 4371-0720 / 7422 / 6346;info@sienahotel.com.ar;;;Peron, Juan Domnigo, Tte. General;1554;Peron, Juan Domnigo, Tte. General 1554;;
18;Key's Hotel;Zapata 315;(54 11) 4778-3233 / 4772 8371;reservas@hotelkeys.com.ar;;;Zapata;315;Zapata 315;;
19;La Fresque;De Mayo Av. 984;(54 11) 4331-3615;info@lafresquehotel.com;;;De Mayo Av.;984;De Mayo Av. 984;;
20;Llano;Yrigoyen, Hipolito 3023;(54 11) 4861-1672;;;;Yrigoyen, Hipolito;3023;Yrigoyen, Hipolito 3023;;
21;Milan;Montevideo 337;(54 11) 4373-0759 / 4374-1906;info@milanhotel.com.ar;www.milanhotel.com.ar;;Montevideo;337;Montevideo 337;;
22;Omega;Paraguay 2991;(54 11) 4962-5431;reservashotelomega@gmail.com;;;Paraguay;2991;Paraguay 2991;;
23;Rio de la Plata;Garay, Juan De Av. 1271;(54 11) 4305-3191 / 4306-8689;;;;Garay, Juan De Av.;1271;Garay, Juan De Av. 1271;;
24;Turista Hotel;De Mayo Av. 686;(54 11) 4331-2281 / 2485;turistahotel@yahoo.com.ar;;;De Mayo Av.;686;De Mayo Av. 686;;
25;ADM Ayamitre Hotel;Ayacucho 106;(54 11) 2053-3350;reservas@hotelayamitre.com.ar;;;Ayacucho;106;Ayacucho 106;;
26;Aires Express;Mitre, Bartolome 3410;(54 11) 4867-1265 / 4860-0204;hotelairesexpres@gmail.com;;;Mitre, Bartolome;3410;Mitre, Bartolome 3410;;
27;Americano Hotel;Rodriguez Peña 265;(54 11) 4382-4223;;;;Rodriguez Peña;265;Rodriguez Peña 265;;
28;Astoria;De Mayo Av. 916;(54 11) 4334-9061 / 5;info@hotel-astoria.com.ar;;;De Mayo Av.;916;De Mayo Av. 916;;
29;Ayacucho Palace Hotel;Ayacucho 1048;(54 11) 4806-1815;reservas@ayacuchohotel.com.ar;;;Ayacucho;1048;Ayacucho 1048;;
30;Be Hollywood;Humboldt 1716;(54 11) 5555-8100;reservas@behollywood.com;;;Humboldt;1716;Humboldt 1716;;
31;Blanro;Junín 759;(54 11) 4374-2000;reservas@hotelblanro.com.ar;;;Junín;759;Junín 759;;
32;Camaro Palace Hotel;Sarmiento 4239;(54 11) 4867-4798 / 0195;camaroph@hotmail.com;;;Sarmiento;4239;Sarmiento 4239;;
33;Central Córdoba;San Martín 1021;(54 11) 4311-1175 / 4312-8524;reservas@hotelcentralcordoba.com.ar;;;San Martín;1021;San Martín 1021;;
34;Crisol Mundial Hotel;De Mayo Av. 1298;(54 11) 4383-0011;reservas@mundialhotel.com.ar;;;De Mayo Av.;1298;De Mayo Av. 1298;;
35;Diplomat;San Martín 918;(54 11) 4311-9370 / 4312-6124;;;;San Martín;918;San Martín 918;;
36;Esperia;Urquiza 222;(54 11) 4957-3937;consultas@hotelesperia.com.ar;;;Urquiza;222;Urquiza 222;;
37;Estilo MB;Callao Av. 164;(54 11) 4374-9112;buenosaires@hotelesestilomb.com.ar;;;Callao Av.;164;Callao Av. 164;;
38;Gran Hotel Atlantic;Castelli 45;(54 11) 4951-0081;info@hotelatlantic.com.ar;;;Castelli;45;Castelli 45;;
39;Gran Hotel Libertad;Libertad 249;(54 11) 4381-2631/4382-7789;info@granhotellibertad.com.ar;;;Libertad;249;Libertad 249;;
40;Gran Vedra;De Mayo Av. 1350;(54 11) 4383-0584;info@hotelvedra.com.ar;;;De Mayo Av.;1350;De Mayo Av. 1350;;
41;Guido Palace Hotel;Guido 1780;(54 11) 4812-0674 / 0841;hotelguidopalace@hotmail.com.ar;;;Guido;1780;Guido 1780;;
42;Hotel A&B;Montevideo 248;(54 11) 4325-8960/4382-4118;recepcion@hotelayb.com;;;Montevideo;248;Montevideo 248;;
43;Hotel Avenida;De Mayo Av. 623;(54 11) 4342-5664;hotelavenidabsas@gmail.com;www.hotelav.com.ar ;;De Mayo Av.;623;De Mayo Av. 623;;
44;Hotel Central;Solis 192;(54 11) 4373-8785;;;;Solis;192;Solis 192;;
45;Internacional;Irigoyen, Bernardo De 552;(54 11) 4334-4949;info@hotel-internacional.com.ar;;;Irigoyen, Bernardo De;552;Irigoyen, Bernardo De 552;;
46;King's Hotel;Corrientes Av. 623;(54 11) 4322-8461 / 8161;reservas@kingshotel.com.ar;;;Corrientes Av.;623;Corrientes Av. 623;;
47;Lisboa;Mitre, Bartolome 1282;(54 11) 4381-2152;info@hotel-lisboa.com.ar,lisboahotelbaires@outlook.com;;;Mitre, Bartolome;1282;Mitre, Bartolome 1282;;
48;Los Tres Reyes;Brasil 423;(54 11) 4300-9456;hotel_tresreyes@yahoo.com;;;Brasil;423;Brasil 423;;
49;Marbella Hotel;De Mayo Av. 1261;(54 11) 4383-8566/3573;info@hotelmarbella.com.ar;;;De Mayo Av.;1261;De Mayo Av. 1261;;
50;Mine Hotel Boutique;Gorriti 4770;(54 11) 4832-1100;info@minehotel.com;;;Gorriti;4770;Gorriti 4770;;
51;Novel Hotel;De Mayo Av. 915;(54 11) 4345-3532;info@novelhotel.com.ar;;;De Mayo Av.;915;De Mayo Av. 915;;
52;Palermo Hotel;Godoy Cruz 2725;(54 11) 4774-7342;reservas@consultoralibertadores.com;;;Godoy Cruz;2725;Godoy Cruz 2725;;
53;Paname;Godoy Cruz 2774;(54 11) 4771-4041;reservas@panamehotel.com.ar;;;Godoy Cruz;2774;Godoy Cruz 2774;;
54;Plaza Roma;Lavalle 110;(54 11) 4311-1679;info@hotelplazaroma.com.ar,reservas@hotelplazaroma.com.ar;https://hotelplazaromabuenosaires.com;;Lavalle;110;Lavalle 110;;
55;Principe Hotel;Laprida 1454;(54 11) 4821-9818;principe@hotel-principe.com.ar;;;Laprida;1454;Laprida 1454;;
56;Real Splendid;Falcon, Ramón L., Cnel. 2799;(54 11) 4611-4610;;;;Falcon, Ramón L., Cnel.;2799;Falcon, Ramón L., Cnel. 2799;;
57;Rio Hotel;Salguero 218;(54 11) 4983-8837;info@hotelrio.com.ar;;;Salguero;218;Salguero 218;;
58;Tres Sargentos Hotel;Tres Sargentos 345;(54 11) 4312-6082;tresargentos@hotmail.com;www.hoteltressargentos.com.ar;;Tres Sargentos;345;Tres Sargentos 345;;
59;Tucuman Palace Hotel;Tucuman 384;(54 11) 4311-3555;reservas@Tucumanpalacehotel.com.ar;;;Tucuman;384;Tucuman 384;;
60;Alpino;Cabello 3318;(54 11) 4802-5151;reservas@hotelalpino.com.ar;;;Cabello;3318;Cabello 3318;;
61;Atlas Tower;Corrientes Av. 1778;(54 11) 5217-9371;reservas@atlastower.com.ar;www.atlastowerhotel.com.ar;;Corrientes Av.;1778;Corrientes Av. 1778;;
62;Bel Air Bs As Hotel;Arenales ;(54 11) 4021-4000;reservas@hotelbelair.com.ar;http://www.hotelbelairbuenosaires.com/index_es.htm;;Arenales;;Arenales ;;
63;Constitucion Palace Hotel;Lima 1697;(54 11) 4305-9010 al 20;info@cphotel.com.ar;www.cphotel.com.ar;;Lima;1697;Lima 1697;;
64;Eleven Palace Hotel;La Rioja 87;(54 11) 4864-5097 al 99;info@hoteleleven.com.ar;https://hoteleleven.com.ar/;;La Rioja;87;La Rioja 87;;
65;Embajador;Pellegrini, Carlos 1185;(54 11) 4326-5302 al 11;reservas@525hotel.com;;;Pellegrini, Carlos;1185;Pellegrini, Carlos 1185;;
66;Épico Recoleta;Laprida 1902;(54 11) 5199-8399;info@epicorecoletahotel.com.ar;epicorecoletahotel.com.ar;;Laprida;1902;Laprida 1902;;
67;Esmeralda Palace Hotel;Esmeralda 527;(54 11) 5811 0317/22;reservasesmeralda@orho-hoteles.com.ar;;;Esmeralda;527;Esmeralda 527;;
68;Esplendor By Wyndham Buenos Aires Plaza Francia;Schiaffino, Eduardo Pje. 2189;(54 11) 4804 9631;reservas@esplendorplazafrancia.com;www.esplendorbuenosaires.com;;Schiaffino, Eduardo Pje.;2189;Schiaffino, Eduardo Pje. 2189;;
69;Europlaza Hotel & Suites;Montevideo 327;(54 11) 4371-8215 / 5032-7679/7699;info@europlaza.com.ar;;;Montevideo;327;Montevideo 327;;
70;Gran Hotel Ailen;Suipacha 18;(54 11) 4345-4980 / 4343-2037;reservas@granhotelailen.com.ar;http://granhotelailen.com.ar/;;Suipacha;18;Suipacha 18;;
71;Gran Hotel Argentino;Pellegrini, Carlos 37;(54 11) 4334-4001 / 02;info@hotel-argentino.com.ar;https://www.hotel-argentino.com.ar/;;Pellegrini, Carlos;37;Pellegrini, Carlos 37;;
72;Gran Hotel de la Paix;Rivadavia Av. 1155;(54 11) 4381-8061 / 63;reservas@granhoteldelapaix.com.ar;www.granhoteldelapaix.com.ar;;Rivadavia Av.;1155;Rivadavia Av. 1155;;
73;Holiday Inn Express Puerto Madero;Alem, Leandro N. Av. 770;(54 11) 4311-5200;reservas.arg@talbot.cl;https://www.ihg.com/holidayinnexpress/hotels/us/es/buenos-aires/buept/hoteldetail;;Alem, Leandro N. Av.;770;Alem, Leandro N. Av. 770;;
74;Hotel Impala;Libertad 1215;(54 11) 5254-6835;reservas@525hotel.com;;;Libertad;1215;Libertad 1215;;
75;Hotel N´Ontué;Corrientes Av. 3321;(54 11) 4860 1600;info@nontuehotel.com.ar;;;Corrientes Av.;3321;Corrientes Av. 3321;;
76;Hotel UTHGRA de las Luces;Alsina 525;(54 11) 4343-6776;reservas@uthgradelasluces.com.ar;http://www.uthgradelasluces.com.ar/;;Alsina;525;Alsina 525;;
77;IBIS Buenos Aires Obelisco;Corrientes Av. 1344;(54 11) 4370-9300;h6502-dm1@accor.com;https://all.accor.com/hotel/6502/index.es.shtml;;Corrientes Av.;1344;Corrientes Av. 1344;;
78;IBIS Congreso;Yrigoyen, Hipolito 1592;(54 11) 5300-5555;h3251@accor.com;;;Yrigoyen, Hipolito;1592;Yrigoyen, Hipolito 1592;;
79;Imperial Park;Lima 107;(54 11) 4383-0555;info@imperialparkhotel.com;NO TIENE;;Lima;107;Lima 107;;
80;Irun;Santiago Del Estero 1671;(54 11) 4306-0018/ 4304-2746 / 0-810-222-4441;info@hotelirun.com.ar;www.hotelirun.com.ar;;Santiago Del Estero;1671;Santiago Del Estero 1671;;
81;La Perla Hotel;Jujuy Av. 36;(54 11) 5218-7737 al 40;info@hotellaperla.com.ar;www.hotellaperla.com.ar;;Jujuy Av.;36;Jujuy Av. 36;;
82;Luey;Rivadavia Av. 2902;(54 11) 4862-3873 /4861-0403 /4866-4427;recepción@luey.com.ar;www.luey.com.ar;;Rivadavia Av.;2902;Rivadavia Av. 2902;;
83;Lyon Hotel by MH;Riobamba 251;(54 11) 2832 1176;;;;Riobamba;251;Riobamba 251;;
84;Napoleon Hotel;Rivadavia Av. 1364;(54 11) 5353-2031/37;info@hotel-napoleon.com.ar;;;Rivadavia Av.;1364;Rivadavia Av. 1364;;
85;Normandie Hotel;Rodriguez Peña 320;(54 11) 4371-7001 al 06;normandie@hotelnormandie.com.ar;;;Rodriguez Peña;320;Rodriguez Peña 320;;
86;O2 Hotel Buenos Aires;Junín 357;(54 11) 4953-4455 / 4071;reservas@grupodotia.com;www.hoteleso2.com;;Junín;357;Junín 357;;
87;Parlamento Hotel;Rodriguez Peña 61;(54 11) 4371-3789 / 4374-1410/1709;info@hotelparlamento.com.ar;www.hotelparlamento.com.ar;;Rodriguez Peña;61;Rodriguez Peña 61;;
88;Regis Hotel;Lavalle 813;0810 222 6746 / (5411) 4327 2605;regisventa@hotelregis.com.ar;www.hotelregis.com.ar;;Lavalle;813;Lavalle 813;;
89;Rochester Concept;Maipu 572;(54 11) 4328-3930;info@rochester-hotel.com.ar;http://www.rochester-hotel.com.ar/concept/;;Maipu;572;Maipu 572;;
90;Sarmiento Palace Hotel;Sarmiento 1953;(54 11) 4953-3420 / 3404 / 5014;info@hotelsarmiento.com.ar;;;Sarmiento;1953;Sarmiento 1953;;
91;Sarum Hotel Design;Quesada 2370;(54 11) 4704-0039/0040;info@hotelsarum.com.ar;https://www.hotelsarum.com.ar/;;Quesada;2370;Quesada 2370;;
92;Serena Hotel Buenos Aires;Libertad 1617;(54 11) 4813-3226;reservas@serenahoteles.com;;;Libertad;1617;Libertad 1617;;
93;Splendid Hotel;Rivadavia Av. 950;(54 11) 4345-2800;ventas@hotel-splendid.com.ar;;;Rivadavia Av.;950;Rivadavia Av. 950;;
94;Torre Hotel;Olleros 4186;(54 11) 4552-6034/6126;info@torre-hotel.com.ar;;;Olleros;4186;Olleros 4186;;
95;Viasui Hotel;Viamonte 960;(54 11) 5252- 3070 al 73;reservas@viasuihotel.com.ar;http://www.viasuihotel.com.ar/;;Viamonte;960;Viamonte 960;;
96;Waldorf;Paraguay 450;(54 11) 4312-2071/9;info@waldorf-hotel.com.ar,reservas@waldorf-hotel.com.ar;https://www.waldorf-hotel.com.ar/;;Paraguay;450;Paraguay 450;;
97;562 Nogaro;Av. Julio A. Roca 562;(54 11) 4331-0091;reservas@562nogarohotel.com;;;Av. Julio A. Roca;562;Av. Julio A. Roca 562;;
98;Amérian Buenos Aires Park Hotel;Reconquista 699;(54 11) 5171-6500;reservas@amerian.com,reservasbph@amerian.com;;;Reconquista;699;Reconquista 699;;
99;Argenta Tower;Juncal 868;(54 11) 4325-4100;reservas@argenta-tower.com.ar;;;Juncal;868;Juncal 868;;
100;Bisonte Libertad;Libertad 902;(54 11) 3723-2520;reservas@bisontelibertad.com;;;Libertad;902;Libertad 902;;
101;Bisonte Palace Hotel;Alvear, Marcelo T. De 902;(54 11) 4328-4751;reservas@bisontepalace.com;www.bisontepalace.com;;Alvear, Marcelo T. De;902;Alvear, Marcelo T. De 902;;
102;Bristol Hotel;Cerrito 286;(54 11) 5252-6400;reservas@hotelbristol.com.ar;;;Cerrito;286;Cerrito 286;;
103;Bys Palermo;Acuña de Figueroa, Francisco 1263;(54 11) 4862 2956;reservas@hotelbys.com.ar;;;Acuña de Figueroa, Francisco;1263;Acuña de Figueroa, Francisco 1263;;
104;Carsson;Viamonte 650;(54 11) 4131-3800;info@hotelcarsson.com.ar;;;Viamonte;650;Viamonte 650;;
105;Centuria;Suipacha 30;(54 11) 4342-5575;recepcion@hotelcenturia.com;;;Suipacha;30;Suipacha 30;;
106;Conte Hotel;Pellegrini, Carlos 101;(54 11) 4000-9350;reservas@conte-hotel.com;;;Pellegrini, Carlos;101;Pellegrini, Carlos 101;;
107;Cyan Americas Towers;Libertad 1070;(54 11) 4129-0700;info@hotelescyan.com;;;Libertad;1070;Libertad 1070;;
108;Cyan Hotel de las Americas;Libertad 1020;(54 11) 5236-9095 / 5236-5300;info@hotelescyan.com;;;Libertad;1020;Libertad 1020;;
109;Da Vinci Hotel;Tucuman 857;(54 11) 5031-8002;info@davincihotel.com.ar;;;Tucuman;857;Tucuman 857;;
110;Dazzler By Wyndham Buenos Aires San Martín;San Martín 920;(54 11) 5256-7700;reservasweb@dazzlersanmartin.com;;;San Martín;920;San Martín 920;;
111;Dolmen Hotel;Suipacha 1079;(54 11) 4311-9000 / 4315-7117;reservas@hoteldolmen.com.ar;www.hoteldolmen.com.ar;;Suipacha;1079;Suipacha 1079;;
112;Duomi Plaza Hotel;Mitre, Bartolome 1480;(54 11) 6091-3888/3866;reservas@duomi.com.ar;;;Mitre, Bartolome;1480;Mitre, Bartolome 1480;;
113;El Conquistador;Suipacha 948;(5411) 4328-3012;reservas@elconquistador.com.ar;;;Suipacha;948;Suipacha 948;;
114;Esplendor by Wyndham Buenos Aires;San Martín 780;(54 11) 5256-8800 / 5217 5799;frontdesk@esplendorbuenosaires.com;http://www.esplendorbuenosaires.com/;;San Martín;780;San Martín 780;;
115;Eurobuilding Hotel;Lima 187;(54 11) 5352-1111 / 5325-1104;buenosaires@hoteleuro.com;;;Lima;187;Lima 187;;
116;Exe Hotel Colon;Pellegrini, Carlos 507;(54 11) 4320-3500;reservas@execolon.com.ar;;;Pellegrini, Carlos;507;Pellegrini, Carlos 507;;
117;Facon Grande;Reconquista 645;(54 11) 4312-6360/69;reservas@hotelfacongrande.com;www.hotelfacongrande.com;;Reconquista;645;Reconquista 645;;
118;Gran Hotel Buenos Aires;Alvear, Marcelo T. De 767;(54 11) 4312-3003;reservas@granhotelbue.com.ar;http://www.granhotelbuenosaires.com/;;Alvear, Marcelo T. De;767;Alvear, Marcelo T. De 767;;
119;Gran Hotel Dora;Maipu 963;(54 11) 4312-7391;reservas@dorahotel.com.ar;;;Maipu;963;Maipu 963;;
120;Grand King Hotel;Lavalle 560;(54 11) 4393-4012;reservas@grandking.com.ar;grandking.com.ar;;Lavalle;560;Lavalle 560;;
121;Hotel Globales Republica Wellness & Spa;Cerrito 370;(54 11) 4382-5050;res.republica@hotelesglobales.com;;;Cerrito;370;Cerrito 370;;
122;Hotel Madero Buenos Aires;Vera Peñaloza, Rosario 360;(54 11) 5776-7777;info@hotelmadero.com;;;Vera Peñaloza, Rosario;360;Vera Peñaloza, Rosario 360;;
123;Hotel Sheltown;Alvear, Marcelo T. De 742;(54 11) 5254-6835;reservas@525hotel.com;www.525hotel.com;;Alvear, Marcelo T. De;742;Alvear, Marcelo T. De 742;;
124;Howard Johnson Plaza Florida Street;Florida 944;(54 11) 4891-9200;reservas@hjFlorida.com.ar;;;Florida;944;Florida 944;;
125;HR Luxor;Saenz Peña, Roque, Pres. Diagonal Norte Av. 890;(54 11) 4328-9400;reservas@hrluxor.com;;;Saenz Peña, Roque, Pres. Diagonal Norte Av.;890;Saenz Peña, Roque, Pres. Diagonal Norte Av. 890;;
126;Intersur Recoleta;Callao Av. 1764;(54 11) 5533-4000;reservas@intersurrecoleta.com.ar;www.intersurrecoleta.com.ar;;Callao Av.;1764;Callao Av. 1764;;
127;Ker Recoleta;Alvear, Marcelo T. De 1368;(54 11) 5277-4600;reservasrecoleta@kerhoteles.com.ar;;;Alvear, Marcelo T. De;1368;Alvear, Marcelo T. De 1368;;
128;Lafayette;Reconquista 546;(54 11) 4393-9081;info@lafayettehotel.com.ar;;;Reconquista;546;Reconquista 546;;
129;Lennox;Talcahuano 52;(54 11) 5272-1070;reservas@lennoxhotels.com;www.lennoxhotels.com;;Talcahuano;52;Talcahuano 52;;
130;Melia Recoleta Plaza;Posadas 1557;(54 11) 5353-4000;reservas@meliarecoletaplaza.com.ar;;;Posadas;1557;Posadas 1557;;
131;NH 9 De Julio;Cerrito 156;(54 11) 5776-6464 / 4124-7400;nh9dejulio@nh-hotels.com;www.nh-hotels.com;;Cerrito;156;Cerrito 156;;
132;NH Collection Buenos Aires Crillón;Santa Fe, Av. 796;(54 11) 5776-6464 / 4310-2000;nhcrillon@nh-hotels.com;www.nh-hotels.com;;Santa Fe, Av.;796;Santa Fe, Av. 796;;
133;NH Collection Lancaster;Cordoba Av. 405;(54 11) 4131-6464;nhcollectionlancaster@nh-hotels.com;www.nh-hotels.com;;Cordoba Av.;405;Cordoba Av. 405;;
134;NH Florida;San Martín 839;(54 11) 5776-6464 / 4321-9850;nhFlorida@nh-hotels.com;www.nh-hotels.com;;San Martín;839;San Martín 839;;
135;NH Jousten;Corrientes Av. 280;(54 11) 5776-6464 / 4321-6750;nhcollectionjousten@nh-hotels.com;www.nh-hotels.com;;Corrientes Av.;280;Corrientes Av. 280;;
136;NH Latino;Suipacha 309;(54 11) 5776-6464 / 4321-6700;nhlatino@nh-hotels.com;www.nh-hotels.com;;Suipacha;309;Suipacha 309;;
137;NH Tango;Cerrito 550;(54 11) 5776-6464 / 5411-4124;nhtango@nh-hotels.com;www.nh-hotels.com;;Cerrito;550;Cerrito 550;;
138;Novotel;Corrientes Av. 1334;(54 11) 4370-9300 / 9500;h6503-re@accor.com;;;Corrientes Av.;1334;Corrientes Av. 1334;;
139;Pestana Hotel;Pellegrini, Carlos 877;(54 11) 5239-1000 / 1100;reservas.buenosaires@pestana.com;http://www.pestana.com/en/pestana-buenos-aires-hotel/pages/home.aspx;;Pellegrini, Carlos;877;Pellegrini, Carlos 877;;
140;Presidente Hotel;Cerrito 850;(54 11) 4816-2222;reservas@hotelpresidente.com.ar;;;Cerrito;850;Cerrito 850;;
141;Principado Downtown Hotel;Paraguay 481;(54 11) 4313-3022;reservas@principado.com.ar;;;Paraguay;481;Paraguay 481;;
142;Recoleta Luxury Boutique Hotel;Parera 183;(54 11) 6777-0200;reservas.bsas@hotels-unique.com;;;Parera;183;Parera 183;;
143;Reconquista Plaza Hotel;Reconquista 602;(54 11) 5263-0277;Reconquistaplaza@latitudhoteles.com;;;Reconquista;602;Reconquista 602;;
144;Regente Palace Hotel;Suipacha 964;(54 11) 4328-6800;reservas@regente.com;;;Suipacha;964;Suipacha 964;;
145;Rochester Classic;Esmeralda 542;0800-345-0040 / (54 11) 4326-6076 / 5256-1055;reservas@rochesterclassic.com.ar;;;Esmeralda;542;Esmeralda 542;;
146;Savoy Hotel;Callao Av. 181;(54 11) 4370-8000 / 10;reservas@savoyhotel.com.ar;;;Callao Av.;181;Callao Av. 181;;
147;Solans Carlton;Libertad 1180;(54 11) 4812-0081;hotelcarlton@solans.com;;;Libertad;1180;Libertad 1180;;
148;Tritone Hotel;Maipu 657;(54 11) 4325-8960/8955;reservas@tritonehotel.com.ar,recepcion@tritonehotel.com.ar;;;Maipu;657;Maipu 657;;
149;Unique Executive Central;Saenz Peña, Roque, Pres. Diagonal Norte Av. 1174;(54 11) 6777-0300;reservas.bsas@hotels-unique.com;;;Saenz Peña, Roque, Pres. Diagonal Norte Av.;1174;Saenz Peña, Roque, Pres. Diagonal Norte Av. 1174;;
150;Unique Le B Club Boutique & Terrasse;Talcahuano 1253;(54 11) 6777-0400;reservas.bsas@hotels-unique.com;;;Talcahuano;1253;Talcahuano 1253;;
151;Wilton Hotel;Callao Av. 1162;(54 11) 4811-1818 / 1993;info@hotelwilton.com.ar,reservas@hotelwilton.com.ar;;;Callao Av.;1162;Callao Av. 1162;;
152;725 Continental Hotel;Saenz Peña, Roque, Pres. Diagonal Norte Av. 725;(54 11) 4131-8000;reservas@725continental.com;;;Saenz Peña, Roque, Pres. Diagonal Norte Av.;725;Saenz Peña, Roque, Pres. Diagonal Norte Av. 725;;
153;Abasto Hotel Buenos Aires;Corrientes Av. 3190;(54 11) 6311-4433/4466/4465;reservas@abastohotel.com;;;Corrientes Av.;3190;Corrientes Av. 3190;;
154;Alvear Palace Hotel;Alvear Av. 1891;(54 11) 4808-2100;reservas@alvear.com.ar,info@alvearpalace.com;;;Alvear Av.;1891;Alvear Av. 1891;;
155;Claridge Hotel;Tucuman 535;(54 11) 4319-8000;reservas@claridge.com.ar;www.claridge.com.ar;;Tucuman;535;Tucuman 535;;
156;Emperador Buenos Aires;Av. Del Libertador Av. 420;(54 11) 4131-4000/3000;reservas@hotel-emperador.com.ar,info@hotel-emperador.com.ar;www.hotel-emperador.com.ar;;Av. Del Libertador Av.;420;Av. Del Libertador Av. 420;;
157;Feir's Park Hotel;Esmeralda 1366;(54 11) 4131-1900;feirspark@feirspark.com.ar;;;Esmeralda;1366;Esmeralda 1366;;
158;Four Seasons Hotel Buenos Aires;Posadas 1086;(54 11) 4321-1200;reservations.bue@fourseasons.com;;;Posadas;1086;Posadas 1086;;
159;Hilton Buenos Aires;Macacha Guemes 351;(54 11) 4891-0000;reservations.buenosaires@hilton.com;;;Macacha Guemes;351;Macacha Guemes 351;;
160;Intercontinental Buenos Aires;Moreno 809;(54 11) 4340-7100;andrea.hernandez@ihg.com,valeria.bulacio@ihg.com;https://www.ihg.com/intercontinental/hotels/us/es/buenos-aires/bueha/hoteldetail;;Moreno;809;Moreno 809;;
161;Loi Suites Recoleta Hotel;Lopez, Vicente 1955;(54 11) 5777-8950;recoleta@loisuites.com.ar;;;Lopez, Vicente;1955;Lopez, Vicente 1955;;
162;Melia Buenos Aires;Reconquista 945;(54 11) 4891-3800;reservas@meliabuenosaires.com.ar;;;Reconquista;945;Reconquista 945;;
163;NH Buenos Aires City;Bolivar 160;(54 11) 4121-6464 / 6400;nhcity@nh-hotels.com;;;Bolivar;160;Bolivar 160;;
164;Palacio Duhau - Park Hyatt Buenos Aires;Alvear Av. 1661;(54 11) 5171-1234;buenosaires.park@hyatt.com;;;Alvear Av.;1661;Alvear Av. 1661;;
165;Regal Pacific;25 de mayo 764;(54 11) 4310-7000;reservas@regalpacific.com.ar;;;25 de mayo;764;25 de mayo 764;;
166;Sheraton Buenos Aires Hotel & Convention Center;San Martín 1225;(54 11) 4318-9000;reservations.buenosaires@marriot.com;www.sheratonbuenosaires.com;;San Martín;1225;San Martín 1225;;
167;Sofitel Buenos Aires Recoleta;Posadas 1232;(54 11) 4819-1100;h8932-re@accor.com;;;Posadas;1232;Posadas 1232;;
168;Apart Hotel Anchorena;Dr. Tomás Manuel de Anchorena 1121;(54 11) 4961-8548 / 9445/;info@anchorenaappart.com.ar;;;Dr. Tomás Manuel de Anchorena;1121;Dr. Tomás Manuel de Anchorena 1121;;
169;Broadway Hotel & Suites;Corrientes Av. 1173;(54 11) 4378-9250;ventas@broadway-suites.com.ar;;;Corrientes Av.;1173;Corrientes Av. 1173;;
170;Loi Suites Esmeralda;Alvear, Marcelo T. De 842;(54 11) 4131-6800;reservas3@loisuites.com.ar;;;Alvear, Marcelo T. De;842;Alvear, Marcelo T. De 842;;
171;Park Royal Buenos Aires;Suipacha 1092;(54 11) 4320-3600;reservationsbue@park-royalhotels.com;https://www.park-royalhotels.com/es/hoteles/argentina/buenos-aires/park-royal-city-buenos-aires/;;Suipacha;1092;Suipacha 1092;;
172;Torre Cristoforo Colombo Suites;Fray Justo Santa María de Oro 2747;(54 11) 4778-4945;reservas@hotelcc.com.ar;https://www.hotelcc.com.ar;;Fray Justo Santa María de Oro;2747;Fray Justo Santa María de Oro 2747;;
173;Trianon Residence Recoleta;Callao Av. 1869;(54 11) 4819-9300;info@trianon.com.ar;https://www.trianonresidence.com/;;Callao Av.;1869;Callao Av. 1869;;
174;UP Viamonte;Viamonte 1373;(54 11) 4371-9993 / 5254 2210;;;;Viamonte;1373;Viamonte 1373;;
175;Village Garden Apart Hotel;Suipacha 250;(54 11) 4326-0163 / 7879 / 8737;reservas@hotelvillagegarden.com.ar;;;Suipacha;250;Suipacha 250;;
176;Argentina Tango Hotel;Suipacha 545;(54 9 11) 56 30 46 77;;http://www.atangohotel.com/#;;Suipacha;545;Suipacha 545;;
177;Icaro Suites;Montevideo 229;(54 11) 4372-9000;resevas@icarosuites.com;;;Montevideo;229;Montevideo 229;;
178;Intersur Suites;Corrientes Av. 1984;(54 11) 5246-1500;reservas@intersursuites.com.ar;;;Corrientes Av.;1984;Corrientes Av. 1984;;
179;Ker House Belgrano;Vuelta de Obligado 2727;(54 11) 5277-4600 / 4789-9383;reservasbelgrano@kerhoteles.com.ar;;;Vuelta de Obligado;2727;Vuelta de Obligado 2727;;
180;Ker Urban Urquiza;Dïaz Colodrero 2513;(54 11) 5353-9232 / 9233;reservasurquiza@kerhoteles.com.ar;;;Dïaz Colodrero;2513;Dïaz Colodrero 2513;;
181;Mayflower Suites;Paraná 720;(54 11) 5238 0050 / 5235 0456;reservas@mayflowersuites.com.ar;;;Paraná;720;Paraná 720;;
182;Palermo Suites Buenos Aires Apartments;Fray Justo Santa María de Oro 2529;(54 11) 5197-5800;reservas@palermosuites.net;;;Fray Justo Santa María de Oro;2529;Fray Justo Santa María de Oro 2529;;
183;The Glu Hotel;Godoy Cruz 1733;(54 11) 4831-4646;info@thegluhotel.com;;;Godoy Cruz;1733;Godoy Cruz 1733;;
184;Ulises Recoleta Suites;Ayacucho 2016;(54 11) 4804-4571 / 4572;info@ulisesrecoleta.com.ar;www.ulisesrecoleta.com.ar;;Ayacucho;2016;Ayacucho 2016;;
185;UP America Plaza;Mitre, Bartolome 1744;(54 11) 5031-3388;info@americaplazahotel.com.ar;https://www.upamericaplaza.com/;;Mitre, Bartolome;1744;Mitre, Bartolome 1744;;
186;Urban Suites Recoleta;Junín 1727;(54 11) 4803 2300;ventas@urbanrecoleta.com;www.urbanrecoleta.com;;Junín;1727;Junín 1727;;
187;Vitrum Hotel;Gorriti 5641;(54 11) 4776-5030;info@vitrumhotel.com;;;Gorriti;5641;Gorriti 5641;;
188;Desing Ce - Hotel de Diseño;Alvear, Marcelo T. De 1695;(54 11) 5237-3100;info@designce.com;http://www.designce.com/home/;;Alvear, Marcelo T. De;1695;Alvear, Marcelo T. De 1695;;
189;Hotel Pampa Plaza;La Pampa 777;(54 11) 4789-9561 / 4788-3984/3084;info@hotelpampaplaza.com.ar;;;La Pampa;777;La Pampa 777;;
190;ABC;Santiago Del Estero 1640;(54 11) 4304-2706;bettyyvos@gmail.com;;;Santiago Del Estero;1640;Santiago Del Estero 1640;;
191;Alba;Garay, Juan De Av. 1381;(54 11) 4304-2935 / 4306-4304;albahoteleria@yahoo.com.ar,gaetos@hotmail.com;;;Garay, Juan De Av.;1381;Garay, Juan De Av. 1381;;
192;Aldeano I;La Rioja 277;(54 11) 4931-2980;aldeano1@hotelaldeano.com.ar;;;La Rioja;277;La Rioja 277;;
193;Alsina;24 de noviembre 190;(54 11) 4931-9393;;;;24 de noviembre;190;24 de noviembre 190;;
194;Aries;Gascón 1147;(54 11) 4883-1232/1164585589/44323702;info@arieshotel.com.ar;;;Gascón;1147;Gascón 1147;;
195;Astor;Av. Caseros 896;(54 11) 4307-7117;info@astorhoteles.com.ar;;;Av. Caseros;896;Av. Caseros 896;;
196;Autopista;Salta 1446;(54 11) 4305-1634;;;;Salta;1446;Salta 1446;;
197;Bahia;Yrigoyen, Hipolito 3062;(54 11) 4931-7198;info@elhotelbahia.com.ar;;;Yrigoyen, Hipolito;3062;Yrigoyen, Hipolito 3062;;
198;Capri;Constitución 1881;(54 11) 4304-0305;;;;Constitución;1881;Constitución 1881;;
199;Carlos I;Calvo, Carlos 1463;(54 11) 4305-3700;cristianlanni@hotmail.com;;;Calvo, Carlos;1463;Calvo, Carlos 1463;;
200;Casablanca;Santiago del Estero 1685;(54 11) 4305-4048;cristinanovas@ciudad.com.ar,hotelcasablanca@ciudad.com.ar;;;Santiago del Estero;1685;Santiago del Estero 1685;;
201;Central;Brasil 1327;(54 11) 4304-3783;;;;Brasil;1327;Brasil 1327;;
202;Cibeles;Cevallos, Virrey 264;(54 11) 4373-1444;hotelcibeles@hotmail.com.ar;;;Cevallos, Virrey;264;Cevallos, Virrey 264;;
203;Colonial;24 de noviembre 229;(54 11) 4931-8800/3104;info@hotelcolonialbaires.com.ar;;;24 de noviembre;229;24 de noviembre 229;;
204;Dos Mundos;Sarmiento 2009;(54 11) 4953-2171;hoteldosmundos@yahoo.com;;;Sarmiento;2009;Sarmiento 2009;;
205;Egipto;Corrientes Av. 3193;(54 11) 4863-0808;info@hotelegipto.com.ar;;;Corrientes Av.;3193;Corrientes Av. 3193;;
206;Esquel;Brasil 1319;(54 11) 4505-6362;;;;Brasil;1319;Brasil 1319;;
207;Europa;Mitre, Bartolome 1294;(54 11) 4384-8360;info@eurohotel.com.ar;;;Mitre, Bartolome;1294;Mitre, Bartolome 1294;;
208;Galicia;Yrigoyen, Hipolito 3072;(54 11) 4931-7270;;;;Yrigoyen, Hipolito;3072;Yrigoyen, Hipolito 3072;;
209;Gran Hotel América;Bernardo 1608;(54 11) 4307-8785/9671;info@granhotelamerica.com.ar;;;Bernardo;1608;Bernardo 1608;;
210;Gran Hotel España;Tacuarí 80;(54 11) 4343-5541;;;;Tacuarí;80;Tacuarí 80;;
211;Gran Hotel Oriental;Mitre, Bartolome 1840;(54 11) 4952-3371 / 4951-6427;ghoriental@hotmail.com;;;Mitre, Bartolome;1840;Mitre, Bartolome 1840;;
212;Guayaquil;Moreno 2718;(54 11) 4957-5097;info@hotelguayaquil.com.ar;;;Moreno;2718;Moreno 2718;;
213;Hotel San Martin;Callao Av. 327;(54 11 ) 4371-6450;hotelsanmartin1@yahoo.com.ar;;;Callao Av.;327;Callao Av. 327;;
214;Jade;Sanchez De Bustamante 839;(54 11) 4863-8711;;;;Sanchez De Bustamante;839;Sanchez De Bustamante 839;;
215;La Vasconia;Salta 1806;(54 11) 4304-3031;silvadaut@hotmail.com;;;Salta;1806;Salta 1806;;
216;Lacroze;Lacroze, Federico Av. 3236;(54 11) 4552-4445;;;;Lacroze, Federico Av.;3236;Lacroze, Federico Av. 3236;;
217;Las Familias;Cuba 3146;(54 11) 4702-5687;lasfamiliashotel@gmail.com;http://www.hotellasfamilias.com/es/;;Cuba;3146;Cuba 3146;;
218;Leon;Callao Av. 758;(54 11) 4811-5054;hotel-leon@hotmail.com;;;Callao Av.;758;Callao Av. 758;;
219;Litoral;Corrientes Av. 6891;(54 11) 4554-5493;;;;Corrientes Av.;6891;Corrientes Av. 6891;;
220;Los Robles;Estados Unidos 827;(54 11) 4300-2096;daquilaus@hotmail.com;;;Estados Unidos;827;Estados Unidos 827;;
221;Lourdes;Callao Av. 44;(54 11)4952-3087/3720;lourdeshotel@yahoo.com.ar;;;Callao Av.;44;Callao Av. 44;;
222;Marfil;Ecuador 282;(54 11) 4861-1570;;;;Ecuador;282;Ecuador 282;;
223;Medrano Plaza Hotel;Medrano 874;(54 11) 4864-1631;info@medranoplazahotel.com.ar;;;Medrano;874;Medrano 874;;
224;Miki;La Rioja 271;(54 11) 4957-1614;;;;La Rioja;271;La Rioja 271;;
225;Miño;Gallo 1258;(54 11) 4962-3673;rodovalho@ciudad.com.ar;;;Gallo;1258;Gallo 1258;;
226;Odeon;Humberto 1º 1257;(54 11) 4303-3347/9775;info@hotelodeon.com.ar,hotelodeon@hotmail.com;;;Humberto 1º;1257;Humberto 1º 1257;;
227;Once Plaza;Moreno 2717;(54 11) 4932-5400;info@onceplazahteldos.com.ar;;;Moreno;2717;Moreno 2717;;
228;Orleans;Callao Av. 680;(54 11) 4812-9342;consultas@orleanshotel.com.ar;;;Callao Av.;680;Callao Av. 680;;
229;Palace Hotel Rondeau;Entre Rios Av. 2100;(54 11) 4306-5388;;;;Entre Rios Av.;2100;Entre Rios Av. 2100;;
230;Paris;Av. Donato Álvarez 2141;(54 11) 4581-0400;;;;Av. Donato Álvarez;2141;Av. Donato Álvarez 2141;;
231;Piramides;Peron, Juan Domnigo, Tte. General 1473;(54 11) 4371-4849;;;;Peron, Juan Domnigo, Tte. General;1473;Peron, Juan Domnigo, Tte. General 1473;;
232;Reina;De Mayo Av. 1120;(54 11) 4381-2496;reservas@hotelreina.com.ar;https://hotelreina.com.ar/;;De Mayo Av.;1120;De Mayo Av. 1120;;
233;Rich;Paraguay 2088;(54 11) 4864-8444;;;;Paraguay;2088;Paraguay 2088;;
234;Rich;Bulnes 1247;(54 11) 4963-4963;;;;Bulnes;1247;Bulnes 1247;;
235;Roma;De Mayo Av. 1413;(54 11) 4383-1273;;;;De Mayo Av.;1413;De Mayo Av. 1413;;
236;Roma;Acuña de Figueroa, Francisco 422;(54 11) 4862-5993;;;;Acuña de Figueroa, Francisco;422;Acuña de Figueroa, Francisco 422;;
237;Rosedal;Santiago Del Estero 1687;(54 11) 4304-4800;;;;Santiago Del Estero;1687;Santiago Del Estero 1687;;
238;San Agustin;Pueyrredon Av. 121;(54 11) 4863-2131;hotelsanagustin@ciudad.com.ar;;;Pueyrredon Av.;121;Pueyrredon Av. 121;;
239;San Carlos;Moreno 3054;(54 11) 4931-7823;;;;Moreno;3054;Moreno 3054;;
240;San Julian;Aranguren 2528;(54 11) 4611-8607;;;;Aranguren;2528;Aranguren 2528;;
241;Soutullo;Bogota 2519;(54 11) 4612-9406;;;;Bogota;2519;Bogota 2519;;
242;Temuco;Peron, Juan Domnigo, Tte. General 4261;(54 11) 4862-3053;;;;Peron, Juan Domnigo, Tte. General;4261;Peron, Juan Domnigo, Tte. General 4261;;
243;Venezuela;Venezuela 2135;(54 11) 4942-8734;;;;Venezuela;2135;Venezuela 2135;;
244;Vesuvio;Rivadavia Av. 2548;(54 11) 4951-4715;;;;Rivadavia Av.;2548;Rivadavia Av. 2548;;
245;York;Alsina 2632;(54 11) 4951-8957;;;;Alsina;2632;Alsina 2632;;
246;24 de noviembre;24 de noviembre 1057;(54 11) 4931-4661;;;;24 de noviembre;1057;24 de noviembre 1057;;
247;9 de julio;Lima 1417;(54 11) 4305-3967;josemarceloteo@yahoo.com;;;Lima;1417;Lima 1417;;
248;Alcazar;De Mayo Av. 935;(54 11) 4345 4308;info@hotelalcazar.com.ar;;;De Mayo Av.;935;De Mayo Av. 935;;
249;Aldeano II;Pasco 136;(54 11) 4951-4102;aldeano2@hotelaldeano.com.ar;;;Pasco;136;Pasco 136;;
250;Ancon;Alvear, Marcelo T. De 2223;(54 11) 4824-0338;hotelancon@hotelancon.com.ar;http://hotelancon.com.ar/;;Alvear, Marcelo T. De;2223;Alvear, Marcelo T. De 2223;;
251;Astur;Avellaneda 371;(54 11) 4982-9515;;;;Avellaneda;371;Avellaneda 371;;
252;Baccara;Salta 952;(54 11) 4308-8173;;;;Salta;952;Salta 952;;
253;Bahia 1;Corrientes Av. 1212;(54 11) 4382-1780;anelluz@hotmail.com,arhotelbahia@gmail.com;;;Corrientes Av.;1212;Corrientes Av. 1212;;
254;Bahia 2;Corrientes Av. 1212;(54 11) 4382 1780;;;;Corrientes Av.;1212;Corrientes Av. 1212;;
255;Brisas del Mar;Humberto 1º 826;(54 11) 4306-6040;info@hotelbrisasdelmar.com.ar;;;Humberto 1º;826;Humberto 1º 826;;
256;Castilla;Mitre, Bartolome 1548;(54 11) 4338-4586;;;;Mitre, Bartolome;1548;Mitre, Bartolome 1548;;
257;Central;Alsina 1693;(54 11) 4304-3783;;;;Alsina;1693;Alsina 1693;;
258;Confort;Rivadavia Av. 2093;(54 11) 4953-4367;;;;Rivadavia Av.;2093;Rivadavia Av. 2093;;
259;Culpina;Culpina 553;(54 11) 4611-0573;;;;Culpina;553;Culpina 553;;
260;Ensenada;Ensenada 134;(54 11) 4672-2547;;;;Ensenada;134;Ensenada 134;;
261;Europeo;Sarmiento 2010;(54 11) 4953-6384;;;;Sarmiento;2010;Sarmiento 2010;;
262;Hotel Plaza Garay;Saenz Peña, Luis, Pres. 1572;(54 11) 4305-3661;hotelplazagaray@gmail.com;;;Saenz Peña, Luis, Pres.;1572;Saenz Peña, Luis, Pres. 1572;;
263;Imperial;Uriburu 1287;(54 11) 4824-1251;;;;Uriburu;1287;Uriburu 1287;;
264;La Piedad;Mitre, Bartolome 1156;(54 11) 4381-6810;lapiedadhotel@gmail.com;;;Mitre, Bartolome;1156;Mitre, Bartolome 1156;;
265;La Santa María;Cramer 618;(54 11) 4551-4166;;;;Cramer;618;Cramer 618;;
266;Los Ángeles;Yrigoyen, Hipolito 3073;(54 11) 4864-2692;;;;Yrigoyen, Hipolito;3073;Yrigoyen, Hipolito 3073;;
267;Magistral;Borges, Jorge Luis 1937;(54 11) 4831-4006;;;;Borges, Jorge Luis;1937;Borges, Jorge Luis 1937;;
268;Maipo;Esmeralda 474;(54 11) 4328-4907/4393-2982;hotelmaipo@hotmail.com;;;Esmeralda;474;Esmeralda 474;;
269;Mary Sil;Bolivia 1151;(54 11) 4581-9005;;;;Bolivia;1151;Bolivia 1151;;
270;Mayo;Alsina 2164;(54 11) 4952-7356;;;;Alsina;2164;Alsina 2164;;
271;Mexico;Mexico 2475;(54 11) 4942-1713;;;;Mexico;2475;Mexico 2475;;
272;Mexico;Mexico 2944;(54 11) 4931-3087;residencial.mexico.hotel@gmail.com;;;Mexico;2944;Mexico 2944;;
273;Miky;Talcahuano 362;(54 11) 4371-2376;;;;Talcahuano;362;Talcahuano 362;;
274;Miramar;Salta 1429;(54 11) 4306-6038;;;;Salta;1429;Salta 1429;;
275;Nazarre;Nazarre 3150;(54 11) 4501-2019;;;;Nazarre;3150;Nazarre 3150;;
276;Noemi;Diaz Velez Av. 5075;(54 11) 4982-8201;;;;Diaz Velez Av.;5075;Diaz Velez Av. 5075;;
277;O Rei;Lavalle 733;(54 11) 4393-7186;info@hotelorei.com.ar;;;Lavalle;733;Lavalle 733;;
278;Odeon;Esmeralda 368;(54 11) 4326-0128;hotelodeon@hotmail.com;;;Esmeralda;368;Esmeralda 368;;
279;Oliden;Alsina 2597;(54 11) 4951-8729;;;;Alsina;2597;Alsina 2597;;
280;Olleros;Olleros 3146;(54 11) 4552-9975;;;;Olleros;3146;Olleros 3146;;
281;Once;Rivadavia Av. 2962;(54 11) 4861-1666;;;;Rivadavia Av.;2962;Rivadavia Av. 2962;;
282;Panamerican;Moreno 2754;(54 11) 4942-8807;;;;Moreno;2754;Moreno 2754;;
283;Paso;Paso 50;(54 11) 4952-5736;;;;Paso;50;Paso 50;;
284;Pinot;Diaz Velez Av. 5069;(54 11) 4962-2747;;;;Diaz Velez Av.;5069;Diaz Velez Av. 5069;;
285;Pueyrredon;Av. Pueyrredón 47;(54 11) 4862-4377;;;;Av. Pueyrredón;47;Av. Pueyrredón 47;;
286;Rey;Combate de los Pozos 471;(54 11) 4942 8412;info@hotel-rey.com.ar;;;Combate de los Pozos;471;Combate de los Pozos 471;;
287;San Andres;San Luis 2921;(54 11) 4961-5346;;;;San Luis;2921;San Luis 2921;;
288;San Remo;Av. Directorio 2449;(54 11) 4612-9751;info@sanremoflores.com;;;Av. Directorio;2449;Av. Directorio 2449;;
289;Santa Cruz;Bogota 2858;(54 11) 4611-2133;;;;Bogota;2858;Bogota 2858;;
290;Sarmiento;Sarmiento 1162;(54 11) 4382-4148;;;;Sarmiento;1162;Sarmiento 1162;;
291;Sevilla;Solís 138;(54 11) 4372-8447;;;;Solís;138;Solís 138;;
292;Solana;Ecuador 945;(54 11) 4962-7337;;;;Ecuador;945;Ecuador 945;;
293;Universal;Cochabamba 1364;(54 11) 4306-5718;;;;Cochabamba;1364;Cochabamba 1364;;
294;Victoria;Chacabuco 726;(54 11) 4351-2135;;;;Chacabuco;726;Chacabuco 726;;
295;Washington;Garay, Juan De Av. 340;(54 11) 4361-4738;;;;Garay, Juan De Av.;340;Garay, Juan De Av. 340;;
296;Yale;Saenz Peña, Luis, Pres. 1007;(54 11) 4305-8754;;;;Saenz Peña, Luis, Pres.;1007;Saenz Peña, Luis, Pres. 1007;;
297;Art Factory Soho;Charcas 4500;(54 11) 4774-2639;info@artfactorysoho.com.ar;https://artfactoryhostels.com.ar/es/hostels/soho;;Charcas;4500;Charcas 4500;;
298;La Cascada Town House Hotel;Vuelta de Obligado 4578;(54 11) 4703-1251;info@lacascadatownhouse.com.ar;;;Vuelta de Obligado;4578;Vuelta de Obligado 4578;;
299;Telmotango;Chacabuco 679;(54 11) 4361-5808;info@hostelmotango.com;;;Chacabuco;679;Chacabuco 679;;
300;Legado Mitico;Gurruchaga 1848;(54 11) 4833-1300;reservasbsas@legadomitico.com;;;Gurruchaga;1848;Gurruchaga 1848;;
301;Duque Hotel Boutique;Guatemala 4364;(54 11) 4832-0312;reservas@duquehotel.com;;;Guatemala;4364;Guatemala 4364;;
302;Home Buenos Aires;Honduras 5860;(54 11) 4778-1008;info@homebuenosaires.com;;;Honduras;5860;Honduras 5860;;
303;Hotel Boutique Racó de Buenos Aires;Yapeyu 269;(54 11) 3530 6075;info@racodebuenosaires.com.ar;;;Yapeyu;269;Yapeyu 269;;
304;Tanguero Boutique;Suipacha 780;(54 11) 4328-7006 / 4328-7045;info@tanguerohotel.com;;;Suipacha;780;Suipacha 780;;
305;Mansion Vitraux;Calvo, Carlos 369;(54 11) 4300-6886;frontdesk.boutiquesuites@boutiqueapartmentsba.com;;;Calvo, Carlos;369;Calvo, Carlos 369;;
306;CasaCalma Hotel;Suipacha 1015;(54 11) 4312-5000;info@casacalmahotel.com;;;Suipacha;1015;Suipacha 1015;;
307;Fierro Hotel Boutique;Soler 5862;(54 11) 3220-6800;info@fierrohotel.com;;;Soler;5862;Soler 5862;;
308;Ilum Experience Home;El Salvador 5726;(54 11) 4776-8667;ilum@ilumhotel.com;;;El Salvador;5726;El Salvador 5726;;
309;Mio Buenos Aires;Quintana 465;(54 11) 5295-8500;reservas@miobuenosaires.com;www.miobuenosaires.com;;Quintana;465;Quintana 465;;
310;Tiana Buenos Aires;Humberto 1º 629;(54 11) 4362-8663 / 4300 8177;info@tianabuenosaires.com.ar;;;Humberto 1º;629;Humberto 1º 629;;
311;AWWA Suites & Spa;Lafinur 3370;(54 11) 3966-0000;info@awwasuites.com;;;Lafinur;3370;Lafinur 3370;;
312;Art Factory Hostel;Piedras 545;(54 11) 4343-1463;info@artfactoryba.com.ar;;;Piedras;545;Piedras 545;;
313;Art Factory Palermo;Costa Rica 4353;(54 11) 2004-4958;info@artfactorypalermo.com.ar;www.artfactoryhostels.com.ar;;Costa Rica;4353;Costa Rica 4353;;
314;Estacion Buenos Aires Hostel;Solis 458;(54 11) 4381-0734;info@hostelestacionbuenosaires.com;;;Solis;458;Solis 458;;
315;Hostel Recoleta;Libertad 1216;(54 11) 4812-4419;hotelesenba@gmail.com;;;Libertad;1216;Libertad 1216;;
316;O6 Central Hostel;Maipu 306;(54 11) 5219-0052/53;info@06centralhostel.com;;;Maipu;306;Maipu 306;;
317;Play Hostel Arcos;Charcas 4752;(54 11) 4773-0806;info@hostelsuitespalermo.com;;;Charcas;4752;Charcas 4752;;
318;Play Hostel Soho;Guatemala 4636;(54 11) 4832-4257;info@playhostel.com;;;Guatemala;4636;Guatemala 4636;;
319;Sabatico Traveller Hostel;Mexico 1410;(54 11) 4381-1138;info@sabaticohostel.com.ar;http://www.sabaticohostel.com.ar/;;Mexico;1410;Mexico 1410;;
320;Sudamerika Hostel & Suites;Yrigoyen, Hipolito 951;(54 11) 4342-3053;info@sudamerikahostel.com.ar;;;Yrigoyen, Hipolito;951;Yrigoyen, Hipolito 951;;
321;Alvear Art Hotel;Suipacha 1036;(54 11) 4114-3400;info@alvearart.com,recepcion.aah@alvear.com.ar;;;Suipacha;1036;Suipacha 1036;;
322;Apart Independencia;Independencia Av. 1877;(54 11) 4384-1102;independencia@luzyfuerzapatagonia.com.ar;;;Independencia Av.;1877;Independencia Av. 1877;;
323;Bet Hotel;Saavedra 526;(54 11) 4942-3399;info@bethotelbuenosaires.com.ar;;;Saavedra;526;Saavedra 526;;
324;Hotel Anselmo Buenos Aires Curio Collection by Hilton;Anselmo Aieta 1069;(54 11) 4834-3200;info@anselmohotel.com;;;Anselmo Aieta;1069;Anselmo Aieta 1069;;
325;Infinito Hotel Eco Design;Arenales 3689;(54 11) 4832-1060 / 2070 2626;info@infinitohotel.com;;;Arenales;3689;Arenales 3689;;
326;Kenton Palace;Defensa 383;(54 11) 4331-2020;reservas1@kentonpalace.com.ar;;;Defensa;383;Defensa 383;;
327;The Loft;Rivadavia Av. 921;(54 11) 4331-4538;reservastheloft@outlook.com;;;Rivadavia Av.;921;Rivadavia Av. 921;;
328;Algodon Mansion;Montevideo 1647;(54 11) 3530-7777;reservations@algodonmansion.com;;;Montevideo;1647;Montevideo 1647;;
329;Club Frances;Rodriguez Peña 1832;(54 11) 4811-0348;info@hotelclubfrances.com.ar;;;Rodriguez Peña;1832;Rodriguez Peña 1832;;
330;Miravida Soho;Darragueyra 2050;(54 11) 4774-6433;info@miravidasoho.com;;;Darragueyra;2050;Darragueyra 2050;;
331;Tango De Mayo;De Mayo Av. 1396;(54 11) 3221-6500;info@tango-hotel.com.ar;;;De Mayo Av.;1396;De Mayo Av. 1396;;
332;Arc Recoleta;Peña 2155;(54 11) 2150-4680;reservas@archoteles.com.ar;https://www.archoteles.com.ar/;;Peña;2155;Peña 2155;;
333;Carles Hotel;Juncal 798;(54 11) 5196-8200;info@carleshotelbuenosaires.com;www.carleshotelbuenosaires.com;;Juncal;798;Juncal 798;;
334;Costa Rica;Costa Rica 4137;(54 11) 4864-7390;info@hotelcostarica.com.ar;;;Costa Rica;4137;Costa Rica 4137;;
335;Koten Hotel Palermo Soho;Guemes 4651;(54 11) 4771-3293;info@kotenhotel.com;;;Guemes;4651;Guemes 4651;;
336;Mérit San Telmo;Alsina 801;(54 11) 5280-9100;recepcionnmba@merithoteles.com.ar;;;Alsina;801;Alsina 801;;
337;Patios de San Telmo;Chacabuco 752;(54 11) 4307-0480/0965;info@patiosdesantelmo.com.ar;;;Chacabuco;752;Chacabuco 752;;
338;Posada Gotan B&B;Sanchez de Loria 1618;(54 11) 4912-3807;posadagotan@gmail.com;;;Sanchez de Loria;1618;Sanchez de Loria 1618;;
339;1828 Smart Hotel;Fray Justo Santa María de Oro 1828;(54 11) 2060-9011;reservas@1828smarthotel.com;;;Fray Justo Santa María de Oro;1828;Fray Justo Santa María de Oro 1828;;
340;Casasur Recoleta;Callao Av. 1823;(54 11) 4515-0085;info@casasurhotel.com;;;Callao Av.;1823;Callao Av. 1823;;
341;L´Hotel Palermo;Thames 1562;(54 11) 4831-7198;info@lhotelpalermo.com;;;Thames;1562;Thames 1562;;
342;Palo Santo Hotel;Bonpland 2275;(54 11) 5280-6100;info@palosantohotel.com;;;Bonpland;2275;Bonpland 2275;;
343;Alvear Icon Hotel;Aime Paine 1110;(54 11) 4114-0900;reservationsicon@alvear.com.ar;;;Aime Paine;1110;Aime Paine 1110;;
344;América del Sur Hostel;Chacabuco 718;(54 11) 4300-5525;baires@americahostel.com.ar;;;Chacabuco;718;Chacabuco 718;;
345;Casasur Palermo Hotel;Costa Rica 6032;(54 11) 4770-9452;recepcion@casasurpalermo.com;;;Costa Rica;6032;Costa Rica 6032;;
346;Feel Apartments;Fray Justo Santa María de Oro 2047;(54 9 11) 6368-3109;info@feelbuenosairesapartments.com;;;Fray Justo Santa María de Oro;2047;Fray Justo Santa María de Oro 2047;;
347;Howard Johnson Plaza Buenos Aires;Lima 653;(54 11) 2205-8900;administracion.florencia@hjplazabuenosaires.com.ar;;;Lima;653;Lima 653;;
348;Malevo Muraña Hostel;Russel 5050;(54 11) 4831-8855;info@malevohostel.com;;;Russel;5050;Russel 5050;;
349;Argenta Suites Belgrano;Ciudad De La Paz 1868;(54 11) 4706-1881;ventas@argenta-suites.com.ar;;;Ciudad De La Paz;1868;Ciudad De La Paz 1868;;
350;Blank;Peña 2049;(54 11) 4195-1137;reservas@blankhotel.com.ar;;;Peña;2049;Peña 2049;;
351;Dazzler by Wyndham Buenos Aires Recoleta;Av. Las Heras 2161;(54 11) 2058-5556;recepcion@dazzlerrecoleta.com;;;Av. Las Heras;2161;Av. Las Heras 2161;;
352;Faena Hotel Buenos Aires;Martha Salotti 445;(54 11) 4010-9000;info@faenahotels.com;;;Martha Salotti;445;Martha Salotti 445;;
353;Grand Brizo;Cerrito 180;(54 11) 3985-7800;jibanez@grandbrizohoteles;;;Cerrito;180;Cerrito 180;;
354;Hotel Hipólito;Yrigoyen, Hipolito 2940;(54 11) 4957-6476;hotelhipolito@hotmail.com;;;Yrigoyen, Hipolito;2940;Yrigoyen, Hipolito 2940;;
355;Howard Johnson Abasto by Windham;Jean Jaures 892;(54 11) 5292-5100;reservas@hjabasto.com.ar;;;Jean Jaures;892;Jean Jaures 892;;
356;Konke Buenos Aires;Corrientes Av. 4320;(54 11) 5284-8300;gerencia@konkehotel.com;;;Corrientes Av.;4320;Corrientes Av. 4320;;
357;Milhouse Avenue;De Mayo Av. 1245;(54 11) 5796-2009;info@milhousehostel.com;;;De Mayo Av.;1245;De Mayo Av. 1245;;
358;Palladio Hotel Buenos Aires - MGallery;Callao Av. 924;(54 11) 4700-7500;recepcion.palladio@accor.com;;;Callao Av.;924;Callao Av. 924;;
359;Hub Porteño;Rodriguez Peña 1967;(54 11) 4815-6100;front@hubporteño.com;;;Rodriguez Peña;1967;Rodriguez Peña 1967;;
360;Let Sun Hotel Boutique;Fitz Roy 1527;(54 11) 4779-1212;info@letsunhotel.com;;;Fitz Roy;1527;Fitz Roy 1527;;
361;Rendez Vous Hotel;Bonpland 1484;(54 11) 3964-5222;info@rendezvoushotel.com.ar;;;Bonpland;1484;Bonpland 1484;;
362;Sileo Hotel;Azcuenaga 1968;(54 11) 4809-0001;reservas@sileohotel.com;;;Azcuenaga;1968;Azcuenaga 1968;;
363;Cassa Lepage Art Hotel;Bolivar 365;(54 11) 5275-0594 / 0595 / 0596;info@cassalepage.com;https://www.cassalepage.com/;;Bolivar;365;Bolivar 365;;
364;Granados Hostel;Chile 374;(54 11) 4362-5600;info@granadoshostel.com;;;Chile;374;Chile 374;;
365;Hotel Huinid Obelisco;Sarmiento 1431;(54 11) 4371-4999;reservas@huinid.com;https://huinid.com/buenosaires/obelisco_hotel/;;Sarmiento;1431;Sarmiento 1431;;
366;OWN Grand Palermo Soho;Gurruchaga 2121;(54 11) 4831-2027;front@ownhotels.com;;;Gurruchaga;2121;Gurruchaga 2121;;
367;Scala Hotel;Irigoyen, Bernardo De 740;(54 11) 43430606;info@scalabuenosaires.com;http://scalabuenosaires.com/;;Irigoyen, Bernardo De;740;Irigoyen, Bernardo De 740;;
368;Arenales Hotel;Arenales 2984;(54 11) 4828-5000;info@hotelarenales.com.ar;;;Arenales;2984;Arenales 2984;;
369;Recoleta Grand Hotel;Av. Las Heras 1745;(54 11) 4129-9800 int 5062;ivalerio@recoletagrand.com;;;Av. Las Heras;1745;Av. Las Heras 1745;;
370;Bulnes Eco Suites;Bulnes 1905;(54 11) 4829-3300;info@bulneseco.com;;;Bulnes;1905;Bulnes 1905;;
371;Hotel Nuevo Camino;Mitre, Bartolome 1907;(54 11) 4952-6266;;;;Mitre, Bartolome;1907;Mitre, Bartolome 1907;;
372;HTL 9 De Julio;Alsina 1112;(54 11) 7078-0731;reservas.9dejulio@htlhoteles.com;;;Alsina;1112;Alsina 1112;;
373;Residencia Universitaria Buen Día;Lavalle 2115;(54 11) 4373-1663;;;;Lavalle;2115;Lavalle 2115;;
374;Callao Suites Apart Hotel Recoleta;Callao Av. 1062;(54 11) 4812-3102;info@callaosuites.com.ar;www.callaosuites.com.ar;;Callao Av.;1062;Callao Av. 1062;;
375;Be Jardin Escondido by Coppola;Gorriti 4746;(54 11) 48328830 / 4834-6166;;;;Gorriti;4746;Gorriti 4746;;
376;Hotel Design Suites Buenos Aires;Tacuarí 243;(54 11) 3724-0700 / 4896-6340;reservas.bsas@gruposolanas.com;www.designsuites.com;;Tacuarí;243;Tacuarí 243;;
377;Hotel La Paz;Estado Plurinacional de Boliva 561;(54 11) 4613-9032;;;;Estado Plurinacional de Boliva;561;Estado Plurinacional de Boliva 561;;
378;Draper Startup House;Chile 680;(54 11 ) 6434-4839;argentina@draperstartuphouse.com;https://draperstartuphouse.com/buenos-aires-argentina;;Chile;680;Chile 680;;
379;Ian Hotel;Vega, Niceto, Cnel. Av. 5832;(54 11) 2188-7000;ventas@hjpalermo.com.ar;;;Vega, Niceto, Cnel. Av.;5832;Vega, Niceto, Cnel. Av. 5832;;
380;BA Stop Hostel;Rivadavia Av. 1194;(54 11) 6091-2156;info@bastop.com;www.bastop.com ;;Rivadavia Av.;1194;Rivadavia Av. 1194;;
381;Puerto Limón Hostel;Chacabuco 1080;(54 9 11) 3645-9086;info@puertolimon.com;www.puertolimonhostel.com;;Chacabuco;1080;Chacabuco 1080;;
382;Lemon Suites Apartments;Chacabuco 1072;(54 11) 4307-5651;info@lemonsuites.com.ar;http://www.lemonsuites.com.ar/;;Chacabuco;1072;Chacabuco 1072;;
383;Juramento de Lealtad Townhouse Hotel;Juramento 2666;(54 11) 4782-0158/1946;info@townhousehotel.com.ar;http://www.townhousehotel.com.ar/;;Juramento;2666;Juramento 2666;;
384;Magnolia Hotel;Alvarez, Julian 1746;(54 9 11) 4867-4900;info@magnoliahotelboutique.com;www.magnoliahotelboutique.com;;Alvarez, Julian;1746;Alvarez, Julian 1746;;
385;Córdoba Suites;Cordoba Av. 1827;(54 11) 4811-8125;cordobasuites@gmail.com;www.cordobasuites.com;;Cordoba Av.;1827;Cordoba Av. 1827;;
386;Htl City Bs. As.;Piedras 303;(54 11) 5277-6050 / 52175799;reservas.citybaires@htlhoteles.com;www.htlhoteles.com;;Piedras;303;Piedras 303;;
387;Htl Urbano;Tucuman 451;(54 11) 7078-0852;reservas.urbano@htlhoteles.com;www.htlhoteles.com;;Tucuman;451;Tucuman 451;;
388;Hotel Parada;Rivadavia Av. 1291;(54 11) 4381-6399;info@hostelparada.com;www.hostelparada.com;;Rivadavia Av.;1291;Rivadavia Av. 1291;;
389;Hotel El Plata;Calvo, Carlos 1274;(54 9 11) 67933468;tatin.lemeja@gmail.com;;;Calvo, Carlos;1274;Calvo, Carlos 1274;;
